VSP RF A1               
1 59135U 24043AP  26066.03073316  .00000577  00000+0  25199-4 0  9997
2 59135  97.5247 201.5379 0009431 234.6315 125.4042 15.26179596111403
STARLINK-36045          
1 66811U 25278W   26068.46201342  .00033175  00000+0  12094-2 0  9996
2 66811  43.0003 115.7060 0001866 259.8192 100.2449 15.27586217 15179
